NORAD_CAT_ID,OBJECT_NAME,OBJECT_TYPE,EPOCH,MEAN_MOTION,ECCENTRICITY,INCLINATION,RA_OF_ASC_NODE,ARG_OF_PERICENTER,MEAN_ANOMALY,BSTAR,MEAN_MOTION_DOT,MEAN_MOTION_DDOT,TLE_LINE0,TLE_LINE1,TLE_LINE2,SEMIMAJOR_AXIS,PERIOD,APOGEE,PERIGEE,DECAYED
51877.0,STARLINK-3556,PAYLOAD,2023-12-05 12:04:39,15.08851805,0.000118,53.218,103.5223,114.3317,245.7799,-6.8508e-05,-1.378e-05,0.0,0 STARLINK-3556,1 51877U 22022AB  23339.50323302 -.00001378  00000-0 -68508-4 0  9996,2 51877  53.2180 103.5223 0001180 114.3317 245.7799 15.08851805 98679,6917.844,95.437,540.526,538.893,0.0
51877.0,STARLINK-3556,PAYLOAD,2023-12-05 18:26:11,15.0885207,0.0001403,53.2171,102.3325,113.7579,246.356,-5.3214e-05,-1.135e-05,0.0,0 STARLINK-3556,1 51877U 22022AB  23339.76819019 -.00001135  00000-0 -53214-4 0  9998,2 51877  53.2171 102.3325 0001403 113.7579 246.3560 15.08852070 98713,6917.843,95.437,540.679,538.738,0.0
51877.0,STARLINK-3556,PAYLOAD,2023-12-06 13:30:49,15.08828225,0.000149,53.2177,98.7707,105.3976,254.7181,9.5026e-05,1.224e-05,0.0,0 STARLINK-3556,1 51877U 22022AB  23340.56307555  .00001224  00000-0  95026-4 0  9999,2 51877  53.2177  98.7707 0001490 105.3976 254.7181 15.08828225 98835,6917.916,95.438,540.812,538.751,0.0
51877.0,STARLINK-3556,PAYLOAD,2023-12-07 13:21:36,15.08833432,0.0001253,53.2168,94.3095,93.246,266.8675,0.00010704,1.416e-05,0.0,0 STARLINK-3556,1 51877U 22022AB  23341.55667772  .00001416  00000-0  10704-3 0  9991,2 51877  53.2168  94.3095 0001253  93.2460 266.8675 15.08833432 98981,6917.9,95.438,540.632,538.899,0.0
51877.0,STARLINK-3556,PAYLOAD,2023-12-07 16:32:23,15.08836427,0.0001254,53.217,93.715,89.6337,270.4799,0.00013035,1.787e-05,0.0,0 STARLINK-3556,1 51877U 22022AB  23341.68915588  .00001787  00000-0  13035-3 0  9997,2 51877  53.2170  93.7150 0001254  89.6337 270.4799 15.08836427 99001,6917.891,95.438,540.624,538.889,0.0
51877.0,STARLINK-3556,PAYLOAD,2023-12-08 11:37:02,15.08817376,0.0001158,53.2171,90.1461,100.1888,259.9234,-8.6047e-05,-1.656e-05,0.0,0 STARLINK-3556,1 51877U 22022AB  23342.48406246 -.00001656  00000-0 -86047-4 0  9993,2 51877  53.2171  90.1461 0001158 100.1888 259.9234 15.08817376 99122,6917.95,95.439,540.616,539.013,0.0
51877.0,STARLINK-3556,PAYLOAD,2023-12-08 13:12:26,15.08816128,0.0001051,53.2171,89.8487,107.8939,252.2168,-9.7299e-05,-1.835e-05,0.0,0 STARLINK-3556,1 51877U 22022AB  23342.55030393 -.00001835  00000-0 -97299-4 0  9997,2 51877  53.2171  89.8487 0001051 107.8939 252.2168 15.08816128 99135,6917.953,95.439,540.545,539.091,0.0
51877.0,STARLINK-3556,PAYLOAD,2023-12-08 16:23:13,15.08812133,9.61e-05,53.2171,89.254,89.7671,270.3431,-0.00012812,-2.325e-05,0.0,0 STARLINK-3556,1 51877U 22022AB  23342.68278990 -.00002325  00000-0 -12812-3 0  9990,2 51877  53.2171  89.2540 0000961  89.7671 270.3431 15.08812133 99157,6917.966,95.439,540.495,539.166,0.0
51877.0,STARLINK-3556,PAYLOAD,2023-12-09 11:27:50,15.08826233,0.0001853,53.2172,85.6928,20.248,339.8585,0.00011723,1.577e-05,0.0,0 STARLINK-3556,1 51877U 22022AB  23343.47766276  .00001577  00000-0  11723-3 0  9993,2 51877  53.2172  85.6928 0001853  20.2480 339.8585 15.08826233 99277,6917.922,95.438,541.069,538.506,0.0
51877.0,STARLINK-3556,PAYLOAD,2023-12-09 13:03:12,15.08838241,0.0001371,53.2173,85.3907,68.9449,291.169,6.9065e-05,8.11e-06,0.0,0 STARLINK-3556,1 51877U 22022AB  23343.54389504  .00000811  00000-0  69065-4 0  9999,2 51877  53.2173  85.3907 0001371  68.9449 291.1690 15.08838241 99281,6917.886,95.438,540.699,538.802,0.0
51877.0,STARLINK-3556,PAYLOAD,2023-12-10 06:32:26,15.08840015,0.0001166,53.2178,82.1169,80.2999,279.8125,0.00041043,6.25e-05,0.0,0 STARLINK-3556,1 51877U 22022AB  23344.27252337  .00006250  00000-0  41043-3 0  9991,2 51877  53.2178  82.1169 0001166  80.2999 279.8125 15.08840015 99390,6917.88,95.438,540.552,538.939,0.0
51877.0,STARLINK-3556,PAYLOAD,2023-12-10 12:53:58,15.08843323,0.0001255,53.2176,80.9297,56.518,303.5932,0.00046339,7.095e-05,0.0,0 STARLINK-3556,1 51877U 22022AB  23344.53748154  .00007095  00000-0  46339-3 0  9998,2 51877  53.2176  80.9297 0001255  56.5180 303.5932 15.08843323 99434,6917.87,95.437,540.603,538.867,0.0
51877.0,STARLINK-3556,PAYLOAD,2023-12-11 11:09:22,15.08856213,8.43e-05,53.2175,76.7621,123.5867,236.5205,4.5728e-06,-2.15e-06,0.0,0 STARLINK-3556,1 51877U 22022AB  23345.46483882 -.00000215  00000-0  45728-5 0  9996,2 51877  53.2175  76.7621 0000843 123.5867 236.5205 15.08856213 99571,6917.831,95.437,540.279,539.113,0.0
51877.0,STARLINK-3556,PAYLOAD,2023-12-11 12:44:45,15.08850999,0.0001184,53.2171,76.4709,60.807,299.3041,7.0507e-06,-1.76e-06,0.0,0 STARLINK-3556,1 51877U 22022AB  23345.53108356 -.00000176  00000-0  70507-5 0  9993,2 51877  53.2171  76.4709 0001184  60.8070 299.3041 15.08850999 99580,6917.847,95.437,540.531,538.893,0.0
51877.0,STARLINK-3556,PAYLOAD,2023-12-12 11:00:09,15.08841654,0.0001079,53.2179,72.3097,80.4232,279.6882,-8.6106e-05,-1.658e-05,0.0,0 STARLINK-3556,1 51877U 22022AB  23346.45844603 -.00001658  00000-0 -86106-4 0  9995,2 51877  53.2179  72.3097 0001079  80.4232 279.6882 15.08841654 99722,6917.875,95.437,540.487,538.994,0.0
51877.0,STARLINK-3556,PAYLOAD,2023-12-13 10:50:56,15.088416,0.0001124,53.2185,67.8427,91.3303,268.7817,8.3552e-05,1.042e-05,0.0,0 STARLINK-3556,1 51877U 22022AB  23347.45203721  .00001042  00000-0  83552-4 0  9993,2 51877  53.2185  67.8427 0001124  91.3303 268.7817 15.08841600 99870,6917.875,95.437,540.518,538.963,0.0
51877.0,STARLINK-3556,PAYLOAD,2023-12-13 12:26:19,15.08843372,0.0001125,53.2182,67.5431,88.9868,271.1253,0.00010072,1.316e-05,0.0,0 STARLINK-3556,1 51877U 22022AB  23347.51827547  .00001316  00000-0  10072-3 0  9998,2 51877  53.2182  67.5431 0001125  88.9868 271.1253 15.08843372 99889,6917.87,95.437,540.513,538.957,0.0
51877.0,STARLINK-3556,PAYLOAD,2023-12-14 12:17:06,15.08841487,0.0001094,53.2178,63.0836,89.9251,270.1867,8.8546e-05,1.122e-05,0.0,0 STARLINK-3556,1 51877U 22022AB  23348.51187936  .00001122  00000-0  88546-4 0  9997,2 51877  53.2178  63.0836 0001094  89.9251 270.1867 15.08841487100031,6917.876,95.437,540.498,538.984,0.0
51877.0,STARLINK-3556,PAYLOAD,2023-12-15 12:07:54,15.08838682,0.0001259,53.2194,58.6232,81.8001,278.3134,-0.00010254,-1.919e-05,0.0,0 STARLINK-3556,1 51877U 22022AB  23349.50549086 -.00001919  00000-0 -10254-3 0  9991,2 51877  53.2194  58.6232 0001259  81.8001 278.3134 15.08838682100182,6917.884,95.438,540.62,538.878,0.0
51877.0,STARLINK-3556,PAYLOAD,2023-12-16 11:58:40,15.08848879,0.0001381,53.2186,54.1645,68.1846,291.9293,0.0001526,2.142e-05,0.0,0 STARLINK-3556,1 51877U 22022AB  23350.49908132  .00002142  00000-0  15260-3 0  9991,2 51877  53.2186  54.1645 0001381  68.1846 291.9293 15.08848879100336,6917.853,95.437,540.674,538.763,0.0
51877.0,STARLINK-3556,PAYLOAD,2023-12-17 11:49:28,15.08840681,0.0001351,53.2182,49.7065,84.2253,275.8893,0.00012627,1.722e-05,0.0,0 STARLINK-3556,1 51877U 22022AB  23351.49269044  .00001722  00000-0  12627-3 0  9991,2 51877  53.2182  49.7065 0001351  84.2253 275.8893 15.08840681100482,6917.878,95.438,540.678,538.809,0.0
51877.0,STARLINK-3556,PAYLOAD,2023-12-18 10:04:51,15.0886045,0.0001613,53.2174,45.5431,70.7899,289.3267,0.00021745,3.176e-05,0.0,0 STARLINK-3556,1 51877U 22022AB  23352.42003794  .00003176  00000-0  21745-3 0  9999,2 51877  53.2174  45.5431 0001613  70.7899 289.3267 15.08860450100628,6917.818,95.436,540.799,538.567,0.0
51877.0,STARLINK-3556,PAYLOAD,2023-12-19 09:55:38,15.08843701,0.0001439,53.2174,41.0834,96.4042,263.7114,2.3434e-05,8.5e-07,0.0,0 STARLINK-3556,1 51877U 22022AB  23353.41364270  .00000085  00000-0  23434-4 0  9992,2 51877  53.2174  41.0834 0001439  96.4042 263.7114 15.08843701100770,6917.869,95.437,540.73,538.739,0.0
51877.0,STARLINK-3556,PAYLOAD,2023-12-20 08:11:03,15.08836141,0.0001611,53.2177,36.9139,81.9151,278.2023,-0.0001624,-2.871e-05,0.0,0 STARLINK-3556,1 51877U 22022AB  23354.34101069 -.00002871  00000-0 -16240-3 0  9993,2 51877  53.2177  36.9139 0001611  81.9151 278.2023 15.08836141100912,6917.892,95.438,540.872,538.643,0.0
51877.0,STARLINK-3556,PAYLOAD,2023-12-21 09:37:13,15.08850522,0.0001843,53.2187,32.1558,97.8666,262.2535,0.00040314,6.136e-05,0.0,0 STARLINK-3556,1 51877U 22022AB  23355.40084509  .00006136  00000-0  40314-3 0  9995,2 51877  53.2187  32.1558 0001843  97.8666 262.2535 15.08850522101078,6917.848,95.437,540.988,538.438,0.0
51877.0,STARLINK-3556,PAYLOAD,2023-12-21 23:55:41,15.08841212,0.000164,53.2182,29.482,105.9761,254.1411,5.2063e-05,5.41e-06,0.0,0 STARLINK-3556,1 51877U 22022AB  23355.99700924  .00000541  00000-0  52063-4 0  9994,2 51877  53.2182  29.4820 0001640 105.9761 254.1411 15.08841212101165,6917.877,95.437,540.876,538.607,0.0
51877.0,STARLINK-3556,PAYLOAD,2023-12-22 07:52:37,15.08838877,0.0001771,53.218,27.9993,104.5693,255.5496,2.2197e-05,6.5e-07,0.0,0 STARLINK-3556,1 51877U 22022AB  23356.32821146  .00000065  00000-0  22197-4 0  9998,2 51877  53.2180  27.9993 0001771 104.5693 255.5496 15.08838877101218,6917.884,95.438,540.974,538.524,0.0
51877.0,STARLINK-3556,PAYLOAD,2023-12-23 02:57:15,15.08835821,0.0001751,53.217,24.4287,105.8743,254.2443,-3.0414e-05,-7.72e-06,0.0,0 STARLINK-3556,1 51877U 22022AB  23357.12309420 -.00000772  00000-0 -30414-4 0  9991,2 51877  53.2170  24.4287 0001751 105.8743 254.2443 15.08835821101330,6917.893,95.438,540.969,538.547,0.0
51877.0,STARLINK-3556,PAYLOAD,2023-12-23 09:18:47,15.08842361,0.0001602,53.2171,23.2408,93.2814,266.8361,-6.2407e-05,-1.281e-05,0.0,0 STARLINK-3556,1 51877U 22022AB  23357.38805318 -.00001281  00000-0 -62407-4 0  9999,2 51877  53.2171  23.2408 0001602  93.2814 266.8361 15.08842361101376,6917.873,95.437,540.846,538.63,0.0
51877.0,STARLINK-3556,PAYLOAD,2023-12-24 10:44:58,15.08846941,0.0001607,53.2171,18.4798,93.8345,266.2831,0.00031879,4.79e-05,0.0,0 STARLINK-3556,1 51877U 22022AB  23358.44789534  .00004790  00000-0  31879-3 0  9992,2 51877  53.2171  18.4798 0001607  93.8345 266.2831 15.08846941101536,6917.859,95.437,540.836,538.612,0.0
